OBJECT_NAME,OBJECT_ID,EPOCH,MEAN_MOTION,ECCENTRICITY,INCLINATION,RA_OF_ASC_NODE,ARG_OF_PERICENTER,MEAN_ANOMALY,EPHEMERIS_TYPE,CLASSIFICATION_TYPE,NORAD_CAT_ID,ELEMENT_SET_NO,REV_AT_EPOCH,BSTAR,MEAN_MOTION_DOT,MEAN_MOTION_DDOT
STARLINK-37589,2026-154W,2026-07-17T06:00:02.000160,15.80890812,.00011727,53.1587,282.4771,105.9335,162.3823,0,U,69839,999,297,-.17379606E-4,-.413E-4,0
STARLINK-37487,2026-154X,2026-07-17T06:00:02.000160,15.87617106,.0000968,53.1570,282.0388,86.8402,32.0553,0,U,69840,999,297,-.63677289E-2,-.1531787E-1,0
STARLINK-37433,2026-154Y,2026-07-17T06:00:02.000160,15.86923678,.00012463,53.1572,282.0238,73.2835,52.7442,0,U,69841,999,310,-.98503506E-2,-.2215965E-1,0
STARLINK-37588,2026-154Z,2026-07-17T06:00:02.000160,15.88762148,.00009394,53.1569,282.0121,90.1258,41.5095,0,U,69842,999,300,-.62324018E-2,-.1581412E-1,0
STARLINK-37579,2026-154AA,2026-07-17T06:00:02.000160,15.87007274,.00010585,53.1569,281.9988,76.9405,61.0024,0,U,69843,999,300,-.76284005E-2,-.1745928E-1,0
STARLINK-37584,2026-154AB,2026-07-17T06:00:02.000160,15.87493337,.00010111,53.1571,281.9874,98.2193,45.0714,0,U,69844,999,300,-.99327856E-2,-.2285359E-1,0
STARLINK-37606,2026-154AC,2026-07-17T06:00:02.000160,15.86665081,.00010262,53.1566,281.9755,82.3365,66.5265,0,U,69845,999,300,-.80113726E-2,-.1794335E-1,0
STARLINK-37603,2026-154AD,2026-07-17T06:00:02.000160,15.86329866,.00013093,53.1569,281.9620,86.6814,68.5291,0,U,69846,999,300,-.84265405E-2,-.1889177E-1,0
STARLINK-37595,2026-154AE,2026-07-17T06:00:02.000160,15.86199881,.00010514,53.1567,281.9514,87.0745,73.1546,0,U,69847,999,300,-.8522524E-2,-.1897028E-1,0
QIANFAN-219,2026-155A,2026-07-17T06:11:52.018944,14.26455236,.00306847,89.0065,60.7116,216.1171,143.7951,0,U,69848,999,167,.81483372E-4,.211E-5,0
QIANFAN-220,2026-155B,2026-07-16T23:44:30.305760,14.16403044,.00353896,89.0057,60.7457,221.7585,138.0902,0,U,69849,999,163,-.10534985E+1,-.1953706E-1,0
QIANFAN-221,2026-155C,2026-07-17T06:10:42.061728,14.26647447,.00304935,89.0064,60.7114,216.5614,143.3499,0,U,69850,999,167,.85749997E-4,.223E-5,0
QIANFAN-222,2026-155D,2026-07-17T06:27:28.609632,14.22185139,.00294946,89.0065,60.7132,216.6268,143.2908,0,U,69851,999,167,.77653058E-4,.187E-5,0
QIANFAN-223,2026-155E,2026-07-17T06:24:14.178528,14.22139826,.00292454,89.0066,60.7131,215.9434,143.9791,0,U,69852,999,167,.41874282E-4,.107E-5,0
QIANFAN-224,2026-155F,2026-07-17T06:20:46.170528,14.23568572,.0030125,89.0058,60.7117,216.1163,143.7995,0,U,69853,999,167,.86862369E-4,.213E-5,0
QIANFAN-225,2026-155G,2026-07-17T06:17:45.682656,14.22450532,.00291425,89.0064,60.7120,217.0121,142.9061,0,U,69854,999,167,.16578953E-4,.51E-6,0
QIANFAN-226,2026-155H,2026-07-17T01:11:25.219680,14.19697888,.00329949,89.0057,60.7364,217.0924,142.7986,0,U,69855,999,164,-.1050697E+1,-.2062008E-1,0
QIANFAN-227,2026-155J,2026-07-16T23:25:51.051648,14.22103173,.00268824,89.0058,60.7437,217.6767,142.2542,0,U,69856,999,163,-.99222952E+0,-.2035804E-1,0
QIANFAN-228,2026-155K,2026-07-16T23:26:05.308512,14.26684449,.00305691,89.0065,60.7434,217.3850,142.5218,0,U,69857,999,163,.77165452E-4,.202E-5,0
QIANFAN-229,2026-155L,2026-07-17T06:10:00.187104,14.26689335,.00306305,89.0064,60.7114,216.1740,143.7382,0,U,69858,999,167,.12698751E-4,.45E-6,0
QIANFAN-230,2026-155M,2026-07-17T01:25:44.773536,14.21842074,.00292148,89.0062,60.7370,217.5734,142.3417,0,U,69859,999,164,.41754612E-4,.107E-5,0
QIANFAN-231,2026-155N,2026-07-17T04:33:37.797984,14.26096510,.00306933,89.0066,60.7200,215.7610,144.1529,0,U,69860,999,166,.89648965E-4,.23E-5,0
QIANFAN-232,2026-155P,2026-07-17T06:09:50.626944,14.26736241,.00305075,89.0064,60.7112,216.7976,143.1124,0,U,69861,999,167,.79627625E-4,.208E-5,0
QIANFAN-233,2026-155Q,2026-07-17T06:09:40.637376,14.26751957,.00304303,89.0065,60.7111,216.6064,143.3051,0,U,69862,999,167,.18911555E-4,.6E-6,0
QIANFAN-234,2026-155R,2026-07-17T06:09:36.011520,14.26758713,.00304262,89.0065,60.7114,216.6590,143.2522,0,U,69863,999,167,.76538848E-4,.201E-5,0
QIANFAN-235,2026-155S,2026-07-17T06:09:31.866048,14.26764608,.00303815,89.0065,60.7113,216.6702,143.2413,0,U,69864,999,167,.6876295E-4,.182E-5,0
QIANFAN-236,2026-155T,2026-07-17T06:09:28.286496,14.26769846,.00303523,89.0065,60.7114,216.7079,143.2037,0,U,69865,999,167,.85611957E-4,.223E-5,0
QIANFAN-237,2026-155U,2026-07-17T06:09:22.333536,14.26778084,.00303264,89.0065,60.7114,216.7337,143.1779,0,U,69866,999,166,.81569925E-4,.213E-5,0
QIANFAN-238,2026-155V,2026-07-17T06:09:17.140896,14.26785542,.00303042,89.0065,60.7113,216.7808,143.1308,0,U,69867,999,167,.8568274E-4,.223E-5,0
CZ-8A R/B,2026-155W,2026-07-17T06:59:18.887712,14.48270598,.01063218,88.9657,60.6419,95.9026,265.4310,0,U,69868,999,169,.55684141E-4,.242E-5,0
