STARLINK-37589          
1 69839U 26154W   26198.25002315 -.00004130  00000+0 -17380-4 0  9999
2 69839  53.1587 282.4771 0001172 105.9335 162.3823 15.80890812  2979
STARLINK-37487          
1 69840U 26154X   26198.25002315 -.01531787  00000+0 -63677-2 0  9993
2 69840  53.1570 282.0388 0000968  86.8402  32.0553 15.87617106  2970
STARLINK-37433          
1 69841U 26154Y   26198.25002315 -.02215965  00000+0 -98504-2 0  9999
2 69841  53.1572 282.0238 0001246  73.2835  52.7442 15.86923678  3102
STARLINK-37588          
1 69842U 26154Z   26198.25002315 -.01581412  00000+0 -62324-2 0  9993
2 69842  53.1569 282.0121 0000939  90.1258  41.5095 15.88762148  3009
STARLINK-37579          
1 69843U 26154AA  26198.25002315 -.01745928  00000+0 -76284-2 0  9998
2 69843  53.1569 281.9988 0001058  76.9405  61.0024 15.87007274  3008
STARLINK-37584          
1 69844U 26154AB  26198.25002315 -.02285359  00000+0 -99328-2 0  9991
2 69844  53.1571 281.9874 0001011  98.2193  45.0714 15.87493337  3003
STARLINK-37606          
1 69845U 26154AC  26198.25002315 -.01794335  00000+0 -80114-2 0  9993
2 69845  53.1566 281.9755 0001026  82.3365  66.5265 15.86665081  3002
STARLINK-37603          
1 69846U 26154AD  26198.25002315 -.01889177  00000+0 -84265-2 0  9994
2 69846  53.1569 281.9620 0001309  86.6814  68.5291 15.86329866  3006
STARLINK-37595          
1 69847U 26154AE  26198.25002315 -.01897028  00000+0 -85225-2 0  9996
2 69847  53.1567 281.9514 0001051  87.0745  73.1546 15.86199881  3006
QIANFAN-219             
1 69848U 26155A   26198.25824096  .00000211  00000+0  81483-4 0  9997
2 69848  89.0065  60.7116 0030684 216.1171 143.7951 14.26455236  1678
QIANFAN-220             
1 69849U 26155B   26197.98923965 -.01953706  00000+0 -10535+1 0  9997
2 69849  89.0057  60.7457 0035389 221.7585 138.0902 14.16403044  1634
QIANFAN-221             
1 69850U 26155C   26198.25743127  .00000223  00000+0  85750-4 0  9999
2 69850  89.0064  60.7114 0030493 216.5614 143.3499 14.26647447  1672
QIANFAN-222             
1 69851U 26155D   26198.26908113  .00000187  00000+0  77653-4 0  9991
2 69851  89.0065  60.7132 0029494 216.6268 143.2908 14.22185139  1674
QIANFAN-223             
1 69852U 26155E   26198.26683077  .00000107  00000+0  41874-4 0  9999
2 69852  89.0066  60.7131 0029245 215.9434 143.9791 14.22139826  1675
QIANFAN-224             
1 69853U 26155F   26198.26442327  .00000213  00000+0  86862-4 0  9995
2 69853  89.0058  60.7117 0030125 216.1163 143.7995 14.23568572  1671
QIANFAN-225             
1 69854U 26155G   26198.26233429  .00000051  00000+0  16579-4 0  9995
2 69854  89.0064  60.7120 0029142 217.0121 142.9061 14.22450532  1674
QIANFAN-226             
1 69855U 26155H   26198.04959745 -.02062008  00000+0 -10507+1 0  9993
2 69855  89.0057  60.7364 0032994 217.0924 142.7986 14.19697888  1641
QIANFAN-227             
1 69856U 26155J   26197.97628532 -.02035804  00000+0 -99223+0 0  9997
2 69856  89.0058  60.7437 0026882 217.6767 142.2542 14.22103173  1639
QIANFAN-228             
1 69857U 26155K   26197.97645033  .00000202  00000+0  77165-4 0  9999
2 69857  89.0065  60.7434 0030569 217.3850 142.5218 14.26684449  1639
QIANFAN-229             
1 69858U 26155L   26198.25694661  .00000045  00000+0  12699-4 0  9999
2 69858  89.0064  60.7114 0030630 216.1740 143.7382 14.26689335  1676
QIANFAN-230             
1 69859U 26155M   26198.05954599  .00000107  00000+0  41755-4 0  9991
2 69859  89.0062  60.7370 0029214 217.5734 142.3417 14.21842074  1640
QIANFAN-231             
1 69860U 26155N   26198.19002081  .00000230  00000+0  89649-4 0  9999
2 69860  89.0066  60.7200 0030693 215.7610 144.1529 14.26096510  1661
QIANFAN-232             
1 69861U 26155P   26198.25683596  .00000208  00000+0  79628-4 0  9994
2 69861  89.0064  60.7112 0030507 216.7976 143.1124 14.26736241  1675
QIANFAN-233             
1 69862U 26155Q   26198.25672034  .00000060  00000+0  18912-4 0  9995
2 69862  89.0065  60.7111 0030430 216.6064 143.3051 14.26751957  1670
QIANFAN-234             
1 69863U 26155R   26198.25666680  .00000201  00000+0  76539-4 0  9992
2 69863  89.0065  60.7114 0030426 216.6590 143.2522 14.26758713  1672
QIANFAN-235             
1 69864U 26155S   26198.25661882  .00000182  00000+0  68763-4 0  9990
2 69864  89.0065  60.7113 0030381 216.6702 143.2413 14.26764608  1676
QIANFAN-236             
1 69865U 26155T   26198.25657739  .00000223  00000+0  85612-4 0  9995
2 69865  89.0065  60.7114 0030352 216.7079 143.2037 14.26769846  1675
QIANFAN-237             
1 69866U 26155U   26198.25650849  .00000213  00000+0  81570-4 0  9999
2 69866  89.0065  60.7114 0030326 216.7337 143.1779 14.26778084  1669
QIANFAN-238             
1 69867U 26155V   26198.25644839  .00000223  00000+0  85683-4 0  9992
2 69867  89.0065  60.7113 0030304 216.7808 143.1308 14.26785542  1674
CZ-8A R/B               
1 69868U 26155W   26198.29119083  .00000242  00000+0  55684-4 0  9994
2 69868  88.9657  60.6419 0106321  95.9026 265.4310 14.48270598  1697
